{
  "type": "FeatureCollection",
  "features": [
    {
      "type": "Feature",
      "properties": {
        "norad_id": 28051,
        "name": "IRS-P6 (RESOURCESAT-1)",
        "group": "resource",
        "lat": 65.38564449542869,
        "lon": 2.554865180058884,
        "alt_km": 796.3584143886501,
        "timestamp": "2025-12-06T05:40:08.892745+00:00",
        "meta_object_name": "IRS-P6 (RESOURCESAT-1)",
        "meta_object_id": "2003-046A",
        "meta_epoch": "2025-12-05T06:33:40.019904",
        "meta_mean_motion": 14.36069511,
        "meta_eccentricity": 0.00637607,
        "meta_inclination": 98.2189,
        "meta_ra_of_asc_node": 20.0262,
        "meta_arg_of_pericenter": 203.1583,
        "meta_mean_anomaly": 289.3121,
        "meta_ephemeris_type": 0,
        "meta_classification_type": "U",
        "meta_norad_cat_id": 28051,
        "meta_element_set_no": 999,
        "meta_rev_at_epoch": 15269,
        "meta_bstar": 0.00015840893,
        "meta_mean_motion_dot": 4.3e-06,
        "meta_mean_motion_ddot": 0,
        "tle_line1": "1 28051U 03046A   25339.27337986  .00000430  00000+0  15841-3 0  9994",
        "tle_line2": "2 28051  98.2189  20.0262 0063760 203.1583 289.3121 14.36069511152696"
      },
      "geometry": {
        "type": "Point",
        "coordinates": [
          2.554865180058884,
          65.38564449542869
        ]
      }
    },
    {
      "type": "Feature",
      "properties": {
        "norad_id": 28220,
        "name": "SHIYAN-1 (SY-1)",
        "group": "resource",
        "lat": -48.01310497186814,
        "lon": 50.262365381850415,
        "alt_km": 485.62543330684093,
        "timestamp": "2025-12-06T05:40:08.892758+00:00",
        "meta_object_name": "SHIYAN-1 (SY-1)",
        "meta_object_id": "2004-012A",
        "meta_epoch": "2025-12-05T03:09:38.233728",
        "meta_mean_motion": 15.2784612,
        "meta_eccentricity": 0.00061967,
        "meta_inclination": 97.8948,
        "meta_ra_of_asc_node": 40.2234,
        "meta_arg_of_pericenter": 353.729,
        "meta_mean_anomaly": 6.3869,
        "meta_ephemeris_type": 0,
        "meta_classification_type": "U",
        "meta_norad_cat_id": 28220,
        "meta_element_set_no": 999,
        "meta_rev_at_epoch": 18140,
        "meta_bstar": 0.00092213236,
        "meta_mean_motion_dot": 0.00025062,
        "meta_mean_motion_ddot": 0,
        "tle_line1": "1 28220U 04012A   25339.13169252  .00025062  00000+0  92213-3 0  9996",
        "tle_line2": "2 28220  97.8948  40.2234 0006196 353.7290   6.3869 15.27846120181409"
      },
      "geometry": {
        "type": "Point",
        "coordinates": [
          50.262365381850415,
          -48.01310497186814
        ]
      }
    },
    {
      "type": "Feature",
      "properties": {
        "norad_id": 28376,
        "name": "AURA",
        "group": "resource",
        "lat": 65.77894173051499,
        "lon": 129.4096029260333,
        "alt_km": 683.0288676036362,
        "timestamp": "2025-12-06T05:40:08.892769+00:00",
        "meta_object_name": "AURA",
        "meta_object_id": "2004-026A",
        "meta_epoch": "2025-12-05T06:08:31.131168",
        "meta_mean_motion": 14.60918933,
        "meta_eccentricity": 0.0001136,
        "meta_inclination": 98.3173,
        "meta_ra_of_asc_node": 289.448,
        "meta_arg_of_pericenter": 92.3877,
        "meta_mean_anomaly": 267.7453,
        "meta_ephemeris_type": 0,
        "meta_classification_type": "U",
        "meta_norad_cat_id": 28376,
        "meta_element_set_no": 999,
        "meta_rev_at_epoch": 13789,
        "meta_bstar": 0.00049975761,
        "meta_mean_motion_dot": 2.399e-05,
        "meta_mean_motion_ddot": 0,
        "tle_line1": "1 28376U 04026A   25339.25591587  .00002399  00000+0  49976-3 0  9992",
        "tle_line2": "2 28376  98.3173 289.4480 0001136  92.3877 267.7453 14.60918933137897"
      },
      "geometry": {
        "type": "Point",
        "coordinates": [
          129.4096029260333,
          65.77894173051499
        ]
      }
    },
    {
      "type": "Feature",
      "properties": {
        "norad_id": 28649,
        "name": "IRS-P5 (CARTOSAT-1)",
        "group": "resource",
        "lat": -2.5242435791652826,
        "lon": 7.273176977979948,
        "alt_km": 599.3769274072656,
        "timestamp": "2025-12-06T05:40:08.892780+00:00",
        "meta_object_name": "IRS-P5 (CARTOSAT-1)",
        "meta_object_id": "2005-017A",
        "meta_epoch": "2025-12-05T00:40:35.239296",
        "meta_mean_motion": 14.90364948,
        "meta_eccentricity": 0.00017015,
        "meta_inclination": 97.5497,
        "meta_ra_of_asc_node": 5.7837,
        "meta_arg_of_pericenter": 51.9794,
        "meta_mean_anomaly": 308.1578,
        "meta_ephemeris_type": 0,
        "meta_classification_type": "U",
        "meta_norad_cat_id": 28649,
        "meta_element_set_no": 999,
        "meta_rev_at_epoch": 11489,
        "meta_bstar": 0.00042893162,
        "meta_mean_motion_dot": 4.122e-05,
        "meta_mean_motion_ddot": 0,
        "tle_line1": "1 28649U 05017A   25339.02818564  .00004122  00000+0  42893-3 0  9995",
        "tle_line2": "2 28649  97.5497   5.7837 0001701  51.9794 308.1578 14.90364948114899"
      },
      "geometry": {
        "type": "Point",
        "coordinates": [
          7.273176977979948,
          -2.5242435791652826
        ]
      }
    },
    {
      "type": "Feature",
      "properties": {
        "norad_id": 28893,
        "name": "SINAH 1",
        "group": "resource",
        "lat": -67.26710451987886,
        "lon": -91.51049690308335,
        "alt_km": 688.1029863730455,
        "timestamp": "2025-12-06T05:40:08.892792+00:00",
        "meta_object_name": "SINAH 1",
        "meta_object_id": "2005-043D",
        "meta_epoch": "2025-12-05T07:12:45.505152",
        "meta_mean_motion": 14.6394944,
        "meta_eccentricity": 0.00149346,
        "meta_inclination": 98.26,
        "meta_ra_of_asc_node": 107.8381,
        "meta_arg_of_pericenter": 159.2792,
        "meta_mean_anomaly": 200.9019,
        "meta_ephemeris_type": 0,
        "meta_classification_type": "U",
        "meta_norad_cat_id": 28893,
        "meta_element_set_no": 999,
        "meta_rev_at_epoch": 7215,
        "meta_bstar": 0.00019678075,
        "meta_mean_motion_dot": 9.82e-06,
        "meta_mean_motion_ddot": 0,
        "tle_line1": "1 28893U 05043D   25339.30052668  .00000982  00000+0  19678-3 0  9996",
        "tle_line2": "2 28893  98.2600 107.8381 0014934 159.2792 200.9019 14.63949440 72151"
      },
      "geometry": {
        "type": "Point",
        "coordinates": [
          -91.51049690308335,
          -67.26710451987886
        ]
      }
    },
    {
      "type": "Feature",
      "properties": {
        "norad_id": 29079,
        "name": "EROS B",
        "group": "resource",
        "lat": 9.660280202772825,
        "lon": 95.25386628554996,
        "alt_km": 373.57544121673436,
        "timestamp": "2025-12-06T05:40:08.892804+00:00",
        "meta_object_name": "EROS B",
        "meta_object_id": "2006-014A",
        "meta_epoch": "2025-12-05T08:09:07.804224",
        "meta_mean_motion": 15.65450586,
        "meta_eccentricity": 0.00019368,
        "meta_inclination": 97.3491,
        "meta_ra_of_asc_node": 95.5771,
        "meta_arg_of_pericenter": 247.3839,
        "meta_mean_anomaly": 112.7216,
        "meta_ephemeris_type": 0,
        "meta_classification_type": "U",
        "meta_norad_cat_id": 29079,
        "meta_element_set_no": 999,
        "meta_rev_at_epoch": 8964,
        "meta_bstar": 0.0018581162,
        "meta_mean_motion_dot": 0.00189318,
        "meta_mean_motion_ddot": 0,
        "tle_line1": "1 29079U 06014A   25339.33967366  .00189318  00000+0  18581-2 0  9997",
        "tle_line2": "2 29079  97.3491  95.5771 0001936 247.3839 112.7216 15.65450586 89643"
      },
      "geometry": {
        "type": "Point",
        "coordinates": [
          95.25386628554996,
          9.660280202772825
        ]
      }
    },
    {
      "type": "Feature",
      "properties": {
        "norad_id": 29228,
        "name": "RESURS-DK 1",
        "group": "resource",
        "lat": 59.26930659262673,
        "lon": -99.29914423063185,
        "alt_km": 528.048481012007,
        "timestamp": "2025-12-06T05:40:08.892815+00:00",
        "meta_object_name": "RESURS-DK 1",
        "meta_object_id": "2006-021A",
        "meta_epoch": "2025-12-04T19:49:36.703200",
        "meta_mean_motion": 15.12091042,
        "meta_eccentricity": 0.00078405,
        "meta_inclination": 69.9333,
        "meta_ra_of_asc_node": 122.2869,
        "meta_arg_of_pericenter": 264.5518,
        "meta_mean_anomaly": 95.4754,
        "meta_ephemeris_type": 0,
        "meta_classification_type": "U",
        "meta_norad_cat_id": 29228,
        "meta_element_set_no": 999,
        "meta_rev_at_epoch": 7318,
        "meta_bstar": 0.00035246267,
        "meta_mean_motion_dot": 5.981e-05,
        "meta_mean_motion_ddot": 0,
        "tle_line1": "1 29228U 06021A   25338.82611925  .00005981  00000+0  35246-3 0  9992",
        "tle_line2": "2 29228  69.9333 122.2869 0007840 264.5518  95.4754 15.12091042 73186"
      },
      "geometry": {
        "type": "Point",
        "coordinates": [
          -99.29914423063185,
          59.26930659262673
        ]
      }
    }
  ]
}